CZ-2C R/B               
1 54039U 22132E   25359.92543679  .00034040  00000+0  49156-3 0  9998
2 54039  97.2950 356.3832 0021053  12.1567 348.0192 15.55626416178888
GSLV R/B                
1 54149U 22138AN  25360.03166882  .00002514  00000+0  21939-3 0  9997
2 54149  87.3822 191.0219 0023978  62.0505 298.3150 14.96196376172915
XRISM                   
1 57800U 23137A   25360.18344316  .00005927  00000+0  34550-3 0  9994
2 57800  31.0031  38.7385 0007628  20.4840 339.6103 15.10474978126667
ACS3                    
1 59588U 24077B   25359.89465237  .00024704  00000+0  20948-1 0  9993
2 59588  97.2594 312.5617 0074235 305.7641  53.6633 13.86089098 83969
SZ-21 MODULE            
1 66515U 25246C   25359.19228706  .00029146  00000+0  31272-3 0  9990
2 66515  41.4767 300.0489 0004589 327.9877  32.0683 15.63137537  6398
